{
    "links": {
        "self": "http://www.neowsapp.com/rest/v1/neo/3892656?api_key=iIulBulltgU6a56xZRHN4H3l9WmuAYTsLGpBGhQ2"
    },
    "id": "3892656",
    "neo_reference_id": "3892656",
    "name": "(2019 VH2)",
    "designation": "2019 VH2",
    "nasa_jpl_url": "http://ssd.jpl.nasa.gov/sbdb.cgi?sstr=3892656",
    "absolute_magnitude_h": 28.8,
    "estimated_diameter": {
        "kilometers": {
            "estimated_diameter_min": 0.0046190746,
            "estimated_diameter_max": 0.0103285648
        },
        "meters": {
            "estimated_diameter_min": 4.6190746028,
            "estimated_diameter_max": 10.328564805
        },
        "miles": {
            "estimated_diameter_min": 0.002870159,
            "estimated_diameter_max": 0.0064178706
        },
        "feet": {
            "estimated_diameter_min": 15.1544447199,
            "estimated_diameter_max": 33.886368555
        }
    },
    "is_potentially_hazardous_asteroid": false,
    "close_approach_data": [
        {
            "close_approach_date": "2017-07-08",
            "close_approach_date_full": "2017-Jul-08 17:09",
            "epoch_date_close_approach": 1499533740000,
            "relative_velocity": {
                "kilometers_per_second": "15.2374894659",
                "kilometers_per_hour": "54854.9620771446",
                "miles_per_hour": "34084.7401862124"
            },
            "miss_distance": {
                "astronomical": "0.2413004584",
                "lunar": "93.8658783176",
                "kilometers": "36098034.606663608",
                "miles": "22430278.5987414704"
            },
            "orbiting_body": "Earth"
        },
        {
            "close_approach_date": "2019-10-31",
            "close_approach_date_full": "2019-Oct-31 19:24",
            "epoch_date_close_approach": 1572549840000,
            "relative_velocity": {
                "kilometers_per_second": "10.6731360835",
                "kilometers_per_hour": "38423.2899005561",
                "miles_per_hour": "23874.7381051539"
            },
            "miss_distance": {
                "astronomical": "0.0077680909",
                "lunar": "3.0217873601",
                "kilometers": "1162089.852606383",
                "miles": "722089.1506907654"
            },
            "orbiting_body": "Moon"
        },
        {
            "close_approach_date": "2019-11-01",
            "close_approach_date_full": "2019-Nov-01 01:35",
            "epoch_date_close_approach": 1572572100000,
            "relative_velocity": {
                "kilometers_per_second": "10.8968358064",
                "kilometers_per_hour": "39228.6089032171",
                "miles_per_hour": "24375.1320154462"
            },
            "miss_distance": {
                "astronomical": "0.0071005277",
                "lunar": "2.7621052753",
                "kilometers": "1062223.819795999",
                "miles": "660035.2753788262"
            },
            "orbiting_body": "Earth"
        }
    ],
    "orbital_data": {
        "orbit_id": "1",
        "orbit_determination_date": "2019-11-05 08:42:05",
        "first_observation_date": "2019-11-02",
        "last_observation_date": "2019-11-05",
        "data_arc_in_days": 3,
        "observations_used": 13,
        "orbit_uncertainty": "8",
        "minimum_orbit_intersection": ".00676988",
        "jupiter_tisserand_invariant": "4.160",
        "epoch_osculation": "2458790.5",
        "eccentricity": ".4470417871757574",
        "semi_major_axis": "1.643003645154187",
        "inclination": "8.990342291589117",
        "ascending_node_longitude": "39.92277079414878",
        "orbital_period": "769.2300069233481",
        "perihelion_distance": ".9085123592881754",
        "perihelion_argument": "313.4812608926799",
        "aphelion_distance": "2.377494931020199",
        "perihelion_time": "2458753.916708884029",
        "mean_anomaly": "17.12099720917663",
        "mean_motion": ".4680004637882946",
        "equinox": "J2000",
        "orbit_class": {
            "orbit_class_type": "APO",
            "orbit_class_description": "Near-Earth asteroid orbits which cross the Earth’s orbit similar to that of 1862 Apollo",
            "orbit_class_range": "a (semi-major axis) > 1.0 AU; q (perihelion) < 1.017 AU"
        }
    },
    "is_sentry_object": false
}